0 TRANSIT 5B-1 DEB
1 27479U 63038P   13281.55316156  .00007685  00000-0  67937-2 0  1864
2 27479 090.1232 310.0547 0047102 042.3137 086.7916 13.84443776576161
0 TRANSIT 5B-1 DEB
1 27479U 63038P   13283.05066260  .00010285  00000-0  90872-2 0  1874
2 27479 090.1236 310.0745 0046708 037.0646 351.0995 13.84479890576376
0 TRANSIT 5B-1 DEB
1 27479U 63038P   13284.06731382  .00009789  00000-0  86479-2 0  1886
2 27479 090.1239 310.0878 0046491 033.4249 018.7635 13.84492994576518
0 TRANSIT 5B-1 DEB
1 27479U 63038P   13286.09158694  .00008945  00000-0  78988-2 0  1890
2 27479 090.1241 310.1145 0046235 026.4299 029.0145 13.84527777576791
0 TRANSIT 5B-1 DEB
1 27479U 63038P   13288.03570443  .00013050  00000-0  11515-1 0  1903
2 27479 090.1227 310.1405 0046103 019.5614 000.1061 13.84563449577066
0 TRANSIT 5B-1 DEB
1 27479U 63038P   13289.04898655  .00011445  00000-0  10096-1 0  1913
2 27479 090.1223 310.1546 0046043 015.7683 011.4807 13.84586652577205
0 TRANSIT 5B-1 DEB
1 27479U 63038P   13290.06606235  .00011243  00000-0  99148-2 0  1921
2 27479 090.1235 310.1703 0045932 012.8071 040.9897 13.84605076577341
0 TRANSIT 5B-1 DEB
1 27479U 63038P   13291.53150316  .00010799  00000-0  95192-2 0  1939
2 27479 090.1226 310.1886 0045939 007.7559 146.2361 13.84634515577542
0 TRANSIT 5B-1 DEB
1 27479U 63038P   13293.02381439  .00010191  00000-0  89786-2 0  1946
2 27479 090.1222 310.2074 0046091 002.6444 025.5581 13.84663765577750
0 TRANSIT 5B-1 DEB
1 27479U 63038P   13294.04053434  .00011285  00000-0  99381-2 0  1958
2 27479 090.1227 310.2208 0046135 359.3459 053.9164 13.84683036577891
0 TRANSIT 5B-1 DEB
1 27479U 63038P   13295.05233036  .00011569  00000-0  10184-1 0  1967
2 27479 090.1226 310.2337 0046251 355.8858 057.9746 13.84702254578037
